{
    "links": {
        "self": "http://www.neowsapp.com/rest/v1/neo/3840713?api_key=iIulBulltgU6a56xZRHN4H3l9WmuAYTsLGpBGhQ2"
    },
    "id": "3840713",
    "neo_reference_id": "3840713",
    "name": "(2019 FP1)",
    "designation": "2019 FP1",
    "nasa_jpl_url": "http://ssd.jpl.nasa.gov/sbdb.cgi?sstr=3840713",
    "absolute_magnitude_h": 26.4,
    "estimated_diameter": {
        "kilometers": {
            "estimated_diameter_min": 0.0139493823,
            "estimated_diameter_max": 0.0311917671
        },
        "meters": {
            "estimated_diameter_min": 13.9493822934,
            "estimated_diameter_max": 31.1917670523
        },
        "miles": {
            "estimated_diameter_min": 0.0086677416,
            "estimated_diameter_max": 0.0193816595
        },
        "feet": {
            "estimated_diameter_min": 45.7656914036,
            "estimated_diameter_max": 102.3351970157
        }
    },
    "is_potentially_hazardous_asteroid": false,
    "close_approach_data": [
        {
            "close_approach_date": "2019-03-25",
            "close_approach_date_full": "2019-Mar-25 13:51",
            "epoch_date_close_approach": 1553521860000,
            "relative_velocity": {
                "kilometers_per_second": "13.6246213474",
                "kilometers_per_hour": "49048.636850473",
                "miles_per_hour": "30476.9154918953"
            },
            "miss_distance": {
                "astronomical": "0.0172961934",
                "lunar": "6.7282192326",
                "kilometers": "2587473.691748058",
                "miles": "1607781.5982288804"
            },
            "orbiting_body": "Earth"
        }
    ],
    "orbital_data": {
        "orbit_id": "2",
        "orbit_determination_date": "2019-04-01 06:59:42",
        "first_observation_date": "2019-03-29",
        "last_observation_date": "2019-03-31",
        "data_arc_in_days": 2,
        "observations_used": 40,
        "orbit_uncertainty": "8",
        "minimum_orbit_intersection": ".0140508",
        "jupiter_tisserand_invariant": "3.489",
        "epoch_osculation": "2458572.5",
        "eccentricity": ".5872712977194777",
        "semi_major_axis": "2.10167997753659",
        "inclination": "10.04755570342561",
        "ascending_node_longitude": "7.314628047567245",
        "orbital_period": "1112.879921660771",
        "perihelion_distance": ".867423649737634",
        "perihelion_argument": "125.2323023449931",
        "aphelion_distance": "3.335936305335546",
        "perihelion_time": "2458531.151839391403",
        "mean_anomaly": "13.37551116645295",
        "mean_motion": ".323485034632277",
        "equinox": "J2000",
        "orbit_class": {
            "orbit_class_type": "APO",
            "orbit_class_description": "Near-Earth asteroid orbits which cross the Earth’s orbit similar to that of 1862 Apollo",
            "orbit_class_range": "a (semi-major axis) > 1.0 AU; q (perihelion) < 1.017 AU"
        }
    },
    "is_sentry_object": false
}